ORBCOMM FM24 [-]        
1 25478U 98053D   23277.83419512  .00002380  00000+0  88213-3 0  9992
2 25478  45.0095 326.6912 0002217 280.5314  79.5283 14.34709946308119
ORBCOMM FM25 [-]        
1 25479U 98053E   23277.86753967  .00002159  00000+0  80525-3 0  9993
2 25479  45.0085 324.7663 0003023 338.6313  21.4407 14.34692496308419
ORBCOMM FM26 [-]        
1 25480U 98053F   23277.79992147  .00001930  00000+0  73086-3 0  9992
2 25480  45.0082 318.3981 0004144  20.9773 339.1243 14.34276729308353
ORBCOMM FM27 [+]        
1 25481U 98053G   23277.85211711  .00002152  00000+0  80311-3 0  9997
2 25481  45.0066 325.0941 0002387 242.3598 117.7007 14.34666279308349
ORBCOMM FM28 [-]        
1 25482U 98053H   23277.42281231  .00002135  00000+0  78929-3 0  9998
2 25482  45.0061 266.3704 0002644  28.0224 332.0766 14.35161081309112
ORBCOMM FM30 [-]        
1 25980U 99065A   23277.99148893  .00001787  00000+0  67890-3 0  9990
2 25980  45.0315 142.8065 0005749 135.2706 224.8606 14.34400479245701
ORBCOMM FM31 [-]        
1 25981U 99065B   23277.88971621  .00001548  00000+0  59447-3 0  9996
2 25981  45.0227 137.1588 0002837 156.2856 203.8122 14.34432945244718
ORBCOMM FM32 [+]        
1 25982U 99065C   23277.92153871  .00001589  00000+0  62151-3 0  9992
2 25982  45.0157 149.2029 0004793 162.2858 197.8156 14.33376801245501
